RAISE-4                 
1 67073U 25297B   26085.89389110  .00005437  00000+0  35360-3 0  9996
2 67073  97.4991 235.7833 0011536 323.3904  36.6535 15.08341790 15489
STARLINK-36230          
1 67075U 25298A   26085.83336806 -.00039358  00000+0 -33068-2 0  9990
2 67075  70.0011 331.3072 0002819 274.3191  77.9300 14.98359045  5898
STARLINK-36240          
1 67076U 25298B   26085.89322784  .00004038  00000+0  34591-3 0  9995
2 67076  70.0028 331.1051 0002890 273.8625  86.2204 14.98344307 15798
STARLINK-36243          
1 67077U 25298C   26085.91828162  .00008105  00000+0  68596-3 0  9991
2 67077  70.0079 331.1936 0000839  47.4562 312.6668 14.98347606 15798
STARLINK-36236          
1 67078U 25298D   26085.83336806 -.00038380  00000+0 -32245-2 0  9993
2 67078  70.0011 331.3562 0002832 266.6665  40.5725 14.98353866  5892
STARLINK-36159          
1 67079U 25298E   26085.86667820  .00001733  00000+0  14988-3 0  9995
2 67079  70.0000 331.0209 0002204 273.8139  86.2768 14.99145157 15792
STARLINK-36158          
1 67080U 25298F   26085.39235421  .00000128  00000+0  18516-4 0  9992
2 67080  70.0052 332.1642 0001268 293.7871  66.3155 14.98342483 15729
STARLINK-35864          
1 67081U 25298G   26085.86818222  .00049424  00000+0  41281-2 0  9996
2 67081  70.0008 331.0213 0001459 268.6514  91.4478 14.98263973 15790
STARLINK-36035          
1 67082U 25298H   26085.87636695  .00005267  00000+0  44875-3 0  9990
2 67082  70.0022 331.0470 0002504 271.0650  89.0222 14.98339632 15799
STARLINK-36170          
1 67083U 25298J   26085.83336806 -.00038904  00000+0 -32690-2 0  9995
2 67083  70.0013 331.3023 0002640 272.4052  80.7473 14.98352298  5876
STARLINK-36166          
1 67084U 25298K   26085.91393413  .00004486  00000+0  38340-3 0  9997
2 67084  70.0032 331.1747 0002124 263.1255  96.9662 14.98345773 15799
STARLINK-35794          
1 67085U 25298L   26085.89257688  .00005348  00000+0  44615-3 0  9998
2 67085  70.0016 331.1072 0001928 269.6614  90.4325 14.99150220 15791
STARLINK-35841          
1 67086U 25298M   26085.66667824  .00020293  00000+0  17037-2 0  9994
2 67086  70.0007 331.7466 0002291 286.5909 225.1842 14.98330223  5897
STARLINK-35842          
1 67087U 25298N   26085.88840051  .00006527  00000+0  54278-3 0  9997
2 67087  70.0001 331.0987 0002810 273.7772  86.3066 14.99146291 15792
STARLINK-35882          
1 67088U 25298P   26085.91811360  .00007249  00000+0  61456-3 0  9991
2 67088  70.0050 331.1883 0001588 310.5015  49.6006 14.98341542 15795
STARLINK-35763          
1 67089U 25298Q   26085.38836885  .00001822  00000+0  16041-3 0  9993
2 67089  70.0022 332.5529 0001924 277.8477  82.2463 14.98335355 15715
STARLINK-36060          
1 67090U 25298R   26085.83336806 -.00041216  00000+0 -34644-2 0  9994
2 67090  70.0008 331.2268 0002608 271.9887 147.7864 14.98357714  5610
STARLINK-36097          
1 67091U 25298S   26085.40989403  .00043937  00000+0  15836-2 0  9997
2 67091  70.0023 329.4383 0003834 199.9962 160.1063 15.28321312 15799
STARLINK-35792          
1 67092U 25298T   26085.90573685  .00049406  00000+0  41265-2 0  9996
2 67092  70.0010 331.1512 0004651 282.3773  77.6865 14.98258471 15798
STARLINK-35784          
1 67093U 25298U   26085.88622859  .00003796  00000+0  31893-3 0  9991
2 67093  70.0022 331.0843 0002487 277.3732  82.7144 14.99156819 15793
STARLINK-36202          
1 67094U 25298V   26085.87714811  .00011492  00000+0  94868-3 0  9994
2 67094  70.0037 331.0500 0001460 261.1607  98.9387 14.99164733 15794
STARLINK-36227          
1 67095U 25298W   26085.88487859  .00004976  00000+0  42438-3 0  9990
2 67095  70.0017 331.0718 0002834 268.7363  91.3471 14.98341340 15793
STARLINK-36228          
1 67096U 25298X   26085.83336806 -.00040192  00000+0 -33779-2 0  9990
2 67096  70.0010 331.2738 0002084 269.2173 106.4370 14.98355490  5878
STARLINK-36222          
1 67097U 25298Y   26085.90978098  .00010682  00000+0  90157-3 0  9997
2 67097  70.0021 331.1572 0002244 271.8712  88.2190 14.98336786 15798
STARLINK-36205          
1 67098U 25298Z   26085.88319222  .00003670  00000+0  30865-3 0  9992
2 67098  70.0023 331.0708 0002290 268.3070  91.7827 14.99153146 15794
STARLINK-36193          
1 67099U 25298AA  26085.83336806 -.00035830  00000+0 -30088-2 0  9996
2 67099  70.0004 331.1143 0002478 269.2281 263.0965 14.98352354  5933
STARLINK-36215          
1 67100U 25298AB  26085.88887638  .00016998  00000+0  14273-2 0  9998
2 67100  70.0021 331.0818 0002053 275.6166  84.4759 14.98374820 15798
STARLINK-36200          
1 67101U 25298AC  26085.91410406  .00006800  00000+0  57697-3 0  9997
2 67101  70.0043 331.1750 0000785 292.1304  67.9772 14.98342167 15797
STARLINK-36255          
1 67102U 25299A   26085.35442377  .00020426  00000+0  74934-3 0  9992
2 67102  43.0033  74.9995 0000861 266.2112  93.8641 15.27597807 15669
STARLINK-36256          
1 67103U 25299B   26085.67492098  .00026219  00000+0  95788-3 0  9999
2 67103  43.0035  73.1008 0002091 269.1645  90.8967 15.27614739 15716
STARLINK-36258          
1 67104U 25299C   26085.36213361  .00024018  00000+0  87892-3 0  9992
2 67104  43.0036  75.0499 0001268 256.4521 103.6190 15.27600888 15665
STARLINK-36261          
1 67105U 25299D   26085.67750631  .00021810  00000+0  79954-3 0  9990
2 67105  42.9991  73.1205 0000420 258.5816 101.4989 15.27587980 15712
STARLINK-36259          
1 67106U 25299E   26085.64923357  .00019258  00000+0  70747-3 0  9999
2 67106  43.0013  72.9014 0000679 296.8721  63.2061 15.27581478 15713
STARLINK-36196          
1 67107U 25299F   26085.35185601  .00020286  00000+0  74445-3 0  9992
2 67107  43.0023  74.9712 0000852 280.6235  79.4521 15.27590140 15666
STARLINK-36208          
1 67108U 25299G   26085.31972364  .00017205  00000+0  63266-3 0  9995
2 67108  42.9990  74.7220 0001082 260.7615  99.3114 15.27611366 15660
STARLINK-35764          
1 67109U 25299H   26085.66336817  .00017513  00000+0  64409-3 0  9993
2 67109  43.0022  73.0068 0000304 334.0751  26.0085 15.27597515 16803
STARLINK-35781          
1 67110U 25299J   26085.36727253  .00020025  00000+0  73486-3 0  9997
2 67110  43.0046  75.0910 0001893 269.8442  90.2193 15.27596385 15665
STARLINK-35875          
1 67111U 25299K   26085.66078610  .00013000  00000+0  48087-3 0  9991
2 67111  43.0006  72.9785 0003103 265.3120  94.7377 15.27593740 15719
STARLINK-35906          
1 67112U 25299L   26085.36598322  .00017397  00000+0  63973-3 0  9990
2 67112  43.0043  75.0736 0001951 256.2524 103.8111 15.27606120 15666
STARLINK-35789          
1 67113U 25299M   26085.83336806  .00040089  00000+0  14595-2 0  9999
2 67113  43.0028  72.3537 0001862 262.9086 185.7754 15.27554642  5995
STARLINK-36180          
1 67114U 25299N   26085.35827743  .00033278  00000+0  12125-2 0  9991
2 67114  43.0040  75.0161 0001515 260.9147  99.1533 15.27602832 15667
STARLINK-35892          
1 67115U 25299P   26085.65565751  .00010206  00000+0  37975-3 0  9990
2 67115  43.0009  72.9478 0000601 294.8275  65.2514 15.27590773 15712
STARLINK-35738          
1 67116U 25299Q   26085.31844565  .00032532  00000+0  11857-2 0  9993
2 67116  43.0001  74.7162 0001125 274.3515  85.7208 15.27601397 15663
STARLINK-35674          
1 67117U 25299R   26085.67107695  .00010129  00000+0  37704-3 0  9997
2 67117  42.9977  73.0681 0000725 263.8391  96.2378 15.27584354 15716
STARLINK-35701          
1 67118U 25299S   26085.65694127  .00023652  00000+0  86618-3 0  9990
2 67118  43.0025  72.9502 0000803 275.5705  84.5055 15.27582819 15715
STARLINK-36179          
1 67119U 25299T   26085.92875824  .00016459  00000+0  60636-3 0  9995
2 67119  43.0010  71.5584 0001395 249.7499 110.3203 15.27575882 15754
STARLINK-36217          
1 67120U 25299U   26085.30446365  .00019002  00000+0  69761-3 0  9998
2 67120  43.0025  75.4719 0001393 271.7532  88.3160 15.27611093 15656
STARLINK-36124          
1 67121U 25299V   26085.35570638  .00019625  00000+0  72041-3 0  9991
2 67121  43.0035  74.9995 0001061 258.7541 101.3191 15.27596943 15662
STARLINK-36188          
1 67122U 25299W   26085.29803137  .00019213  00000+0  70567-3 0  9992
2 67122  43.0042  75.4273 0001946 261.4664  98.5968 15.27590148 15654
STARLINK-36151          
1 67123U 25299X   26084.67871496  .00016813  00000+0  61872-3 0  9999
2 67123  42.9964  78.5127 0001451 281.1546  78.9143 15.27599394 15566
STARLINK-36195          
1 67124U 25299Y   26085.37612123  .00015271  00000+0  56295-3 0  9998
2 67124  43.0050  74.2901 0002266 272.2262  87.8330 15.27601470 15677
STARLINK-36219          
1 67125U 25299Z   26085.34542793  .00018639  00000+0  68484-3 0  9995
2 67125  43.0006  74.9172 0001046 268.5810  91.4921 15.27594102 15667
STARLINK-36223          
1 67126U 25299AA  26085.66467303  .00019059  00000+0  70054-3 0  9997
2 67126  42.9990  73.0073 0001262 275.4522  84.6186 15.27570156 15711
STARLINK-36164          
1 67127U 25299AB  26085.65051805  .00011634  00000+0  43152-3 0  9993
2 67127  43.0013  72.8992 0000530 288.6283  71.4511 15.27588337 15710
STARLINK-35685          
1 67128U 25299AC  26085.65308802  .00022479  00000+0  82388-3 0  9999
2 67128  42.9998  72.9266 0000896 280.1736  79.9014 15.27581691 15718
STARLINK-36214          
1 67129U 25299AD  26085.30702681  .00018894  00000+0  69410-3 0  9992
2 67129  43.0026  75.4889 0001823 261.5513  98.5132 15.27591770 15659
STARLINK-36194          
1 67130U 25299AE  26085.34157214  .00019042  00000+0  69982-3 0  9994
2 67130  43.0001  74.8865 0001014 254.2348 105.8392 15.27574106 15663
ZIYUAN 3-04 (ZY 3-04)   
1 67131U 25300A   26085.87842961  .00005472  00000+0  24807-3 0  9995
2 67131  97.4767 164.3774 0006303 231.9374 128.1294 15.21240991 15325
KUIPER-00144            
1 67133U 25301A   26085.83336806 -.02001375  00000+0 -87161-1 0  9992
2 67133  51.8785 342.5567 0006606 102.2434 168.5643 15.25095199  4139
